STARLINK-38067          
1 69747U 26150J   26198.82288878  .00115789  00000+0  76659-3 0  9990
2 69747  97.2835  37.2956 0001745  92.1933 267.9532 15.75192520  3739
STARLINK-37988          
1 69748U 26150K   26198.82112473  .00204278  00000+0  13301-2 0  9994
2 69748  97.2835  37.2979 0001252 112.9896 247.1501 15.75326244  3735
STARLINK-37987          
1 69749U 26150L   26198.81688957  .00129681  00000+0  85621-3 0  9998
2 69749  97.2843  37.3043 0002225  97.9668 262.1850 15.75214396  3736
STARLINK-38037          
1 69750U 26150M   26198.79438366  .00267818  00000+0  13459-2 0  9998
2 69750  97.2850  37.3356 0001414 103.1301 257.0125 15.80987860  3733
STARLINK-38049          
1 69751U 26150N   26198.54016062  .00293836  00000+0  14753-2 0  9994
2 69751  97.2845  37.0688 0001346 104.0296 256.1122 15.80940262  3697
STARLINK-38029          
1 69752U 26150P   26198.91668981 -.00023664  00000+0 -15825-3 0  9993
2 69752  97.2849  37.4505 0001093 107.5424 192.1517 15.75186118  3732
STARLINK-37965          
1 69753U 26150Q   26198.48934558  .00164945  00000+0  10796-2 0  9999
2 69753  97.2842  36.9844 0001625 120.0515 240.0911 15.75316047  3689
STARLINK-38048          
1 69754U 26150R   26198.53403882  .00147462  00000+0  75605-3 0  9993
2 69754  97.2827  37.0770 0000872 105.1327 255.0038 15.80862549  3697
STARLINK-38006          
1 69755U 26150S   26198.91668981 -.00038973  00000+0 -26157-3 0  9995
2 69755  97.2846  37.4563 0000856 123.4954 190.1958 15.75194294  3738
STARLINK-38036          
1 69756U 26150T   26198.91668981 -.00029690  00000+0 -19888-3 0  9995
2 69756  97.2855  37.4729 0000937  92.5163 259.1696 15.75190366  3732
STARLINK-38058          
1 69757U 26150U   26198.91668981 -.01857399  00000+0 -11605-1 0  9999
2 69757  97.2843  37.4933 0001344  74.1006 326.5022 15.79767371  3734
STARLINK-38066          
1 69758U 26150V   26198.52954147  .00281833  00000+0  14431-2 0  9991
2 69758  97.2819  37.0863 0002245  92.5096 267.6429 15.80539037  3699
STARLINK-38035          
1 69759U 26150W   26197.51659780  .00328828  00000+0  16439-2 0  9991
2 69759  97.2826  36.0135 0001208 127.8766 232.2612 15.80943955  3536
STARLINK-38056          
1 69760U 26150X   26198.52595956  .00171456  00000+0  87587-3 0  9995
2 69760  97.2834  37.0896 0001248 110.0556 250.0847 15.80878793  3699
STARLINK-38069          
1 69761U 26150Y   26198.83923368 -.00002747  00000+0 -14199-4 0  9990
2 69761  97.2838  37.4292 0004010   0.9354 359.1921 15.79871740  3744
STARLINK-38019          
1 69762U 26150Z   26198.92417933  .00085666  00000+0  56895-3 0  9994
2 69762  97.2844  37.4652 0000465  75.8835 284.2482 15.75211631  3751
KUIPER-00258            
1 69763U 26151A   26198.93619761  .00003326  00000+0  10823-3 0  9994
2 69763  51.8673 167.3485 0011517 176.1999 183.9076 15.34767856  2439
KUIPER-00526            
1 69764U 26151B   26198.46227668  .00012172  00000+0  33725-3 0  9999
2 69764  51.8774 169.4309 0005842 149.0343 211.0989 15.37352408  2360
KUIPER-00558            
1 69765U 26151C   26198.91668981  .00041723  00000+0  12722-2 0  9994
2 69765  51.8777 167.3212 0006942 171.7253 141.2440 15.33518626  3031
KUIPER-00569            
1 69766U 26151D   26198.91555443  .00019595  00000+0  53327-3 0  9992
2 69766  51.8783 167.2196 0005300 142.1548 217.9812 15.37510491  2438
KUIPER-00589            
1 69767U 26151E   26198.46141912  .00012237  00000+0  33874-3 0  9996
2 69767  51.8764 169.4246 0005366 150.2740 209.8552 15.37378719  2362
KUIPER-00598            
1 69768U 26151F   26198.91668981  .00032892  00000+0  97802-3 0  9997
2 69768  51.8640 167.4390 0008803 173.1576  78.0541 15.34413763  2971
KUIPER-00604            
1 69769U 26151G   26198.90797058  .00014306  00000+0  38288-3 0  9998
2 69769  51.8803 167.1691 0002741 111.4868 248.6412 15.38282933  2438
KUIPER-00609            
1 69770U 26151H   26198.64396768  .00014438  00000+0  38144-3 0  9991
2 69770  51.8808 168.3993 0001418  55.6122 304.4999 15.38674387  2399
KUIPER-00611            
1 69771U 26151J   26198.90580957  .00014642  00000+0  38890-3 0  9991
2 69771  51.8804 167.1516 0001749 100.2434 259.8751 15.38498678  2435
KUIPER-00612            
1 69772U 26151K   26198.91098585  .00014197  00000+0  38370-3 0  9992
2 69772  51.8795 167.1902 0003785 122.3507 237.7847 15.37985007  2439
KUIPER-00614            
1 69773U 26151L   26198.90884825  .00013411  00000+0  36069-3 0  9993
2 69773  51.8806 167.1732 0002705 127.0358 233.0877 15.38191068  2430
KUIPER-00615            
1 69774U 26151M   26198.91823332  .00012794  00000+0  35486-3 0  9996
2 69774  51.8777 167.2380 0005915 153.7507 206.3781 15.37267291  2434
KUIPER-00616            
1 69775U 26151N   26198.90707221  .00000911  00000+0  33968-4 0  9996
2 69775  51.8787 167.1652 0003120 128.2453 231.8815 15.38408173  2438
KUIPER-00617            
1 69776U 26151P   26198.91234999  .00014753  00000+0  40031-3 0  9992
2 69776  51.8798 167.1986 0003885 140.6407 219.4863 15.37827270  2433
